0 ARIANE 3 DEB
1 26806U 88081G   13281.61511890 -.00000134  00000-0  00000+0 0  6460
2 26806 006.3458 047.6733 7023979 287.2727 011.7822 02.17115955105049
0 ARIANE 3 DEB
1 26806U 88081G   13286.21496424 -.00000153  00000-0  00000+0 0  6478
2 26806 006.3410 046.3061 7024648 290.0362 007.0753 02.17116962105149
0 ARIANE 3 DEB
1 26806U 88081G   13294.50384332 -.00000142  00000-0  00000+0 0  6482
2 26806 006.3441 043.7211 7024420 295.1947 005.7769 02.17118112105325
